{
  "type": "FeatureCollection",
  "features": [
    {"type":"Feature","properties":{"website":"https://www.memphistn.gov/cms/One.aspx?portalId=11150816&pageId=12140162","zip":"38018","community_":"Bert Ferguson Community Center","street":"8505 Trinity Road","phone":"901-309-1761","council_district":"2"},"geometry":{"type":"Point","coordinates":[-89.779447,35.142536]}},{"type":"Feature","properties":{"website":"https://www.memphistn.gov/cms/One.aspx?portalId=11150816&pageId=12157226","zip":"38107","community_":"Kate Sexton Community Center","street":"1235 Brown Avenue","phone":"901-576-7070","council_district":"7"},"geometry":{"type":"Point","coordinates":[-90.016259,35.167534]}},{"type":"Feature","properties":{"website":"https://www.memphistn.gov/cms/One.aspx?portalId=11150816&pageId=12142626","zip":"38114","community_":"Glenview Community Center","street":"1141 S. Barksdale Street","phone":"901-576-7080","council_district":"4"},"geometry":{"type":"Point","coordinates":[-89.999199,35.114668]}},{"type":"Feature","properties":{"website":"https://www.memphistn.gov/cms/One.aspx?portalId=11150816&pageId=12157255","zip":"38117","community_":"Marion Hale Community Center","street":"4791 Willow Road","phone":"901-685-8120","council_district":"5"},"geometry":{"type":"Point","coordinates":[-89.902647,35.085647]}},{"type":"Feature","properties":{"website":"https://www.memphistn.gov/cms/One.aspx?portalId=11150816&pageId=12157191","zip":"38115","community_":"Hickory Hill Community Center","street":"3910 Ridgeway Road","phone":"901-566-9685","council_district":"3"},"geometry":{"type":"Point","coordinates":[-89.856471,35.043964]}},{"type":"Feature","properties":{"website":"https://www.memphistn.gov/cms/One.aspx?portalId=11150816&pageId=12145057","zip":"38128","community_":"Cunningham Community Center","street":"3773 Old Allen Road","phone":"901-377-3037","council_district":"1"},"geometry":{"type":"Point","coordinates":[-89.94985,35.226899]}},{"type":"Feature","properties":{"website":"https://www.memphistn.gov/cms/One.aspx?portalId=11150816&pageId=12144349","zip":"38109","community_":"Riverview Community Center","street":"1891 Kansas Street","phone":"901-774-3041","council_district":"6"},"geometry":{"type":"Point","coordinates":[-90.066779,35.095936]}},{"type":"Feature","properties":{"website":"https://www.memphistn.gov/cms/One.aspx?portalId=11150816&pageId=12144266","zip":"38106","community_":"Pine Hill Community Center","street":"973 Alice Avenue","phone":"901-774-7950","council_district":"6"},"geometry":{"type":"Point","coordinates":[-90.030763,35.094091]}},{"type":"Feature","properties":{"website":"https://www.memphistn.gov/cms/One.aspx?portalId=11150816&pageId=12142496","zip":"38122","community_":"Gaisman Community Center","street":"4221 Macon Road","phone":"901-682-6161","council_district":"5"},"geometry":{"type":"Point","coordinates":[-89.919482,35.162073]}},{"type":"Feature","properties":{"website":"https://www.memphistn.gov/cms/One.aspx?portalId=11150816&pageId=12144509","zip":"38107","community_":"Bickford Community Center","street":"233 Henry Street","phone":"901-527-8752","council_district":"7"},"geometry":{"type":"Point","coordinates":[-90.040085,35.166079]}},{"type":"Feature","properties":{"website":"https://www.memphistn.gov/cms/One.aspx?portalId=11150816&pageId=12143573","zip":"38127","community_":"North Frayser Community Center","street":"2555 St. Elmo Avenue","phone":"901-353-9419","council_district":"7"},"geometry":{"type":"Point","coordinates":[-89.978495,35.232647]}},{"type":"Feature","properties":{"website":"https://www.memphistn.gov/cms/One.aspx?portalId=11150816&pageId=12157441","zip":"38116","community_":"Whitehaven Community Center","street":"4318 Graceland Drive","phone":"901-332-0783","council_district":"3"},"geometry":{"type":"Point","coordinates":[-90.014958,35.030812]}},{"type":"Feature","properties":{"website":"https://www.memphistn.gov/cms/One.aspx?portalId=11150816&pageId=12153604","zip":"38106","community_":"Gaston Community Center","street":"1048 S. Third Street","phone":"901-774-4156","council_district":"4"},"geometry":{"type":"Point","coordinates":[-90.021504,35.118081]}},{"type":"Feature","properties":{"website":"https://www.memphistn.gov/cms/One.aspx?portalId=11150816&pageId=12140469","zip":"38109","community_":"Charles Powell - Westwood Community Center","street":"810 Western Park Drive","phone":"901-785-5975","council_district":"6"},"geometry":{"type":"Point","coordinates":[-90.091253,35.031149]}},{"type":"Feature","properties":{"website":"https://www.memphistn.gov/cms/One.aspx?portalId=11150816&pageId=12157377","zip":"38114","community_":"Orange Mound Community Center","street":"2572 Park Avenue","phone":"901-636-6878","council_district":"4"},"geometry":{"type":"Point","coordinates":[-89.975894,35.108256]}},{"type":"Feature","properties":{"website":"https://www.memphistn.gov/cms/One.aspx?portalId=11150816&pageId=12145102","zip":"38111","community_":"Davis Community Center","street":"3371 Spottswood Avenue","phone":"901-323-8015","council_district":"5"},"geometry":{"type":"Point","coordinates":[-89.950321,35.113156]}},{"type":"Feature","properties":{"website":"https://www.memphistn.gov/cms/One.aspx?portalId=11150816&pageId=12143437","zip":"38112","community_":"Lester Community Center","street":"317 Tillman Street","phone":"901-324-2639","council_district":"5"},"geometry":{"type":"Point","coordinates":[-89.961651,35.140887]}},{"type":"Feature","properties":{"website":"https://www.memphistn.gov/cms/One.aspx?portalId=11150816&pageId=12142400","zip":"38108","community_":"Douglass Community Center","street":"1616 Ash Street","phone":"901-327-6131","council_district":"7"},"geometry":{"type":"Point","coordinates":[-89.953672,35.17661]}},{"type":"Feature","properties":{"website":"https://www.memphistn.gov/cms/One.aspx?portalId=11150816&pageId=12157989","zip":"38128","community_":"Raleigh Community Center","street":"3678 Powers Road","phone":"901-372-2085","council_district":"1"},"geometry":{"type":"Point","coordinates":[-89.912657,35.225649]}},{"type":"Feature","properties":{"website":"https://www.memphistn.gov/cms/One.aspx?portalId=11150816&pageId=12143522","zip":"38118","community_":"McFarland Community Center","street":"4955 Cottonwood Road","phone":"901-362-8350","council_district":"4"},"geometry":{"type":"Point","coordinates":[-89.898235,35.069161]}},{"type":"Feature","properties":{"website":"https://www.memphistn.gov/cms/One.aspx?portalId=11150816&pageId=12145213","zip":"38127","community_":"Ed Rice Community Center","street":"2907 N. Watkins Street","phone":"901-357-6919","council_district":"7"},"geometry":{"type":"Point","coordinates":[-90.004064,35.204899]}},{"type":"Feature","properties":{"website":"https://www.memphistn.gov/cms/One.aspx?portalId=11150816&pageId=12143393","zip":"38108","community_":"Hollywood Community Center","street":"1560 N. Hollywood Street","phone":"901-458-4084","council_district":"7"},"geometry":{"type":"Point","coordinates":[-89.975245,35.178883]}},{"type":"Feature","properties":{"website":"https://www.memphistn.gov/cms/One.aspx?portalId=11150816&pageId=12157272","zip":"38109","community_":"Mitchell Community Center","street":"602 West Mitchell Road","phone":"901-789-2927","council_district":"6"},"geometry":{"type":"Point","coordinates":[-90.085194,35.055918]}},{"type":"Feature","properties":{"website":"https://www.memphistn.gov/cms/One.aspx?portalId=11150816&pageId=12141522","zip":"38107","community_":"Dave Wells Community Center","street":"915 Chelsea Avenue","phone":"901-526-7193","council_district":"7"},"geometry":{"type":"Point","coordinates":[-90.026326,35.167546]}}]
}